[{"OBJECT_NAME":"TIANPING-3A 02","OBJECT_ID":"2025-068A","EPOCH":"2026-03-09T20:54:34.712640","MEAN_MOTION":14.85842181,"ECCENTRICITY":0.02320093,"INCLINATION":43.0011,"RA_OF_ASC_NODE":213.5906,"ARG_OF_PERICENTER":358.6421,"MEAN_ANOMALY":1.3764,"EPHEMERIS_TYPE":0,"CLASSIFICATION_TYPE":"U","NORAD_CAT_ID":63432,"ELEMENT_SET_NO":999,"REV_AT_EPOCH":5060,"BSTAR":0.00038259976,"MEAN_MOTION_DOT":5.293e-5,"MEAN_MOTION_DDOT":0},{"OBJECT_NAME":"CZ-6A DEB","OBJECT_ID":"2024-140AAG","EPOCH":"2026-03-09T12:55:38.736192","MEAN_MOTION":14.48952807,"ECCENTRICITY":0.01205439,"INCLINATION":88.8127,"RA_OF_ASC_NODE":270.2332,"ARG_OF_PERICENTER":307.6908,"MEAN_ANOMALY":51.3414,"EPHEMERIS_TYPE":0,"CLASSIFICATION_TYPE":"U","NORAD_CAT_ID":61474,"ELEMENT_SET_NO":999,"REV_AT_EPOCH":7968,"BSTAR":0.00078765622,"MEAN_MOTION_DOT":3.287e-5,"MEAN_MOTION_DDOT":0}]
